NORAD_CAT_ID,OBJECT_NAME,OBJECT_TYPE,EPOCH,MEAN_MOTION,ECCENTRICITY,INCLINATION,RA_OF_ASC_NODE,ARG_OF_PERICENTER,MEAN_ANOMALY,BSTAR,MEAN_MOTION_DOT,MEAN_MOTION_DDOT,TLE_LINE0,TLE_LINE1,TLE_LINE2,SEMIMAJOR_AXIS,PERIOD,APOGEE,PERIGEE,DECAYED
53850.0,STARLINK-4767,PAYLOAD,2023-02-27 17:21:08,15.08843638,0.0001495,53.2159,218.613,85.9104,274.2059,6.1238e-05,6.87e-06,0.0,0 STARLINK-4767,1 53850U 22114AJ  23058.72301447  .00000687  00000-0  61238-4 0  9992,2 53850  53.2159 218.6130 0001495  85.9104 274.2059 15.08843638 25478,6917.869,95.437,540.768,538.7,0.0
53850.0,STARLINK-4767,PAYLOAD,2023-02-28 14:01:09,15.08840566,0.0001463,53.2167,214.7466,99.2068,260.9089,-5.2926e-05,-1.13e-05,0.0,0 STARLINK-4767,1 53850U 22114AJ  23059.58413924 -.00001130  00000-0 -52926-4 0  9991,2 53850  53.2167 214.7466 0001463  99.2068 260.9089 15.08840566 26145,6917.879,95.438,540.756,538.732,0.0
53850.0,STARLINK-4767,PAYLOAD,2023-02-28 17:11:55,15.08843995,0.0001264,53.2169,214.1519,91.7155,268.3982,-1.5188e-05,-5.3e-06,0.0,0 STARLINK-4767,1 53850U 22114AJ  23059.71661597 -.00000530  00000-0 -15188-4 0  9999,2 53850  53.2169 214.1519 0001264  91.7155 268.3982 15.08843995 26168,6917.868,95.437,540.608,538.859,0.0
53850.0,STARLINK-4767,PAYLOAD,2023-03-01 09:05:48,15.08822976,0.0001646,53.2168,211.1785,98.5136,261.6043,-4.6337e-05,-1.025e-05,0.0,0 STARLINK-4767,1 53850U 22114AJ  23060.37903351 -.00001025  00000-0 -46337-4 0  9990,2 53850  53.2168 211.1785 0001646  98.5136 261.6043 15.08822976 25728,6917.932,95.439,540.936,538.659,0.0
53850.0,STARLINK-4767,PAYLOAD,2023-03-01 17:02:44,15.08826616,0.0001189,53.2193,209.6944,108.391,251.7212,-0.00010408,-1.943e-05,0.0,0 STARLINK-4767,1 53850U 22114AJ  23060.71023548 -.00001943  00000-0 -10408-3 0  9997,2 53850  53.2193 209.6944 0001189 108.3910 251.7212 15.08826616 26316,6917.921,95.438,540.609,538.964,0.0
53850.0,STARLINK-4767,PAYLOAD,2023-03-02 02:35:02,15.08836379,0.0001335,53.2202,207.91,101.5039,258.6103,-0.00013003,-2.357e-05,0.0,0 STARLINK-4767,1 53850U 22114AJ  23061.10767219 -.00002357  00000-0 -13003-3 0  9995,2 53850  53.2202 207.9100 0001335 101.5039 258.6103 15.08836379 25830,6917.891,95.438,540.68,538.833,0.0
53850.0,STARLINK-4767,PAYLOAD,2023-03-02 18:28:53,15.08846227,7.57e-05,53.2175,204.9338,85.4114,274.6965,9.4189e-05,1.212e-05,0.0,0 STARLINK-4767,1 53850U 22114AJ  23061.77006099  .00001212  00000-0  94189-4 0  9992,2 53850  53.2175 204.9338 0000757  85.4114 274.6965 15.08846227 26478,6917.861,95.437,540.25,539.203,0.0
53850.0,STARLINK-4767,PAYLOAD,2023-03-03 10:22:45,15.08827232,8.74e-05,53.2189,201.9586,78.3539,281.7551,0.00027978,4.166e-05,0.0,0 STARLINK-4767,1 53850U 22114AJ  23062.43246649  .00004166  00000-0  27978-3 0  9995,2 53850  53.2189 201.9586 0000874  78.3539 281.7551 15.08827232 26034,6917.919,95.438,540.389,539.18,0.0
53850.0,STARLINK-4767,PAYLOAD,2023-03-03 18:19:39,15.08855422,8.27e-05,53.2183,200.4737,79.835,280.2736,0.00022666,3.323e-05,0.0,0 STARLINK-4767,1 53850U 22114AJ  23062.76364990  .00003323  00000-0  22666-3 0  9994,2 53850  53.2183 200.4737 0000827  79.8350 280.2736 15.08855422 26081,6917.833,95.437,540.27,539.126,0.0
53850.0,STARLINK-4767,PAYLOAD,2023-03-04 08:38:08,15.08841092,7.39e-05,53.219,197.7993,90.2217,269.886,2.6626e-06,-2.45e-06,0.0,0 STARLINK-4767,1 53850U 22114AJ  23063.35982477 -.00000245  00000-0  26626-5 0  9999,2 53850  53.2190 197.7993 0000739  90.2217 269.8860 15.08841092 26171,6917.877,95.437,540.253,539.231,0.0
53850.0,STARLINK-4767,PAYLOAD,2023-03-04 18:10:26,15.08854965,0.0001028,53.2178,196.0124,98.7009,261.41,2.7728e-05,1.54e-06,0.0,0 STARLINK-4767,1 53850U 22114AJ  23063.75725649  .00000154  00000-0  27728-4 0  9990,2 53850  53.2178 196.0124 0001028  98.7009 261.4100 15.08854965 26234,6917.835,95.437,540.411,538.988,0.0
53850.0,STARLINK-4767,PAYLOAD,2023-03-05 08:28:56,15.08832134,0.0001183,53.2181,193.3388,87.3509,272.7619,-8.4639e-05,-1.634e-05,0.0,0 STARLINK-4767,1 53850U 22114AJ  23064.35343480 -.00001634  00000-0 -84639-4 0  9996,2 53850  53.2181 193.3388 0001183  87.3509 272.7619 15.08832134 26325,6917.904,95.438,540.588,538.951,0.0
53850.0,STARLINK-4767,PAYLOAD,2023-03-06 01:58:10,15.08835825,0.0001738,53.218,190.0664,92.2369,267.8822,1.9568e-05,2.3e-07,0.0,0 STARLINK-4767,1 53850U 22114AJ  23065.08206874  .00000023  00000-0  19568-4 0  9990,2 53850  53.2180 190.0664 0001738  92.2369 267.8822 15.08835825 26433,6917.893,95.438,540.96,538.556,0.0
53850.0,STARLINK-4767,PAYLOAD,2023-03-06 16:16:37,15.08859133,0.0001208,53.2184,187.3891,87.5097,272.6033,5.9015e-05,6.52e-06,0.0,0 STARLINK-4767,1 53850U 22114AJ  23065.67821078  .00000652  00000-0  59015-4 0  9993,2 53850  53.2184 187.3891 0001208  87.5097 272.6033 15.08859133 26521,6917.822,95.436,540.523,538.851,0.0
53850.0,STARLINK-4767,PAYLOAD,2023-03-07 08:10:30,15.08833965,0.0001833,53.2155,184.4151,106.5233,253.5961,-1.3551e-05,-5.04e-06,0.0,0 STARLINK-4767,1 53850U 22114AJ  23066.34063043 -.00000504  00000-0 -13551-4 0  9991,2 53850  53.2155 184.4151 0001833 106.5233 253.5961 15.08833965 26628,6917.899,95.438,541.032,538.496,0.0
53850.0,STARLINK-4767,PAYLOAD,2023-03-07 16:07:25,15.0883827,0.0001783,53.2157,182.9281,98.1035,262.016,-1.3851e-05,-5.09e-06,0.0,0 STARLINK-4767,1 53850U 22114AJ  23066.67182869 -.00000509  00000-0 -13851-4 0  9993,2 53850  53.2157 182.9281 0001783  98.1035 262.0160 15.08838270 27213,6917.886,95.438,540.984,538.517,0.0
53850.0,STARLINK-4767,PAYLOAD,2023-03-08 00:04:22,15.08827107,0.0002716,53.2139,181.4431,81.9881,278.1419,-0.00011184,-2.068e-05,0.0,0 STARLINK-4767,1 53850U 22114AJ  23067.00304248 -.00002068  00000-0 -11184-3 0  9996,2 53850  53.2139 181.4431 0002716  81.9881 278.1419 15.08827107 26727,6917.92,95.438,541.664,537.906,0.0
53850.0,STARLINK-4767,PAYLOAD,2023-03-08 15:58:13,15.08838854,0.0002011,53.2188,178.4669,86.1211,274.0011,-0.00011746,-2.157e-05,0.0,0 STARLINK-4767,1 53850U 22114AJ  23067.66543722 -.00002157  00000-0 -11746-3 0  9993,2 53850  53.2188 178.4669 0002011  86.1211 274.0011 15.08838854 27367,6917.884,95.438,541.14,538.358,0.0
53850.0,STARLINK-4767,PAYLOAD,2023-03-08 23:55:09,15.08834456,0.0001787,53.2167,176.9836,85.9538,274.1659,8.358e-05,1.042e-05,0.0,0 STARLINK-4767,1 53850U 22114AJ  23067.99663360  .00001042  00000-0  83580-4 0  9996,2 53850  53.2167 176.9836 0001787  85.9538 274.1659 15.08834456 26879,6917.897,95.438,540.999,538.526,0.0
53850.0,STARLINK-4767,PAYLOAD,2023-03-09 12:38:13,15.08854701,9.97e-05,53.2179,174.6054,102.345,257.7654,9.0382e-05,1.152e-05,0.0,0 STARLINK-4767,1 53850U 22114AJ  23068.52653994  .00001152  00000-0  90382-4 0  9998,2 53850  53.2179 174.6054 0000997 102.3450 257.7654 15.08854701 26954,6917.835,95.437,540.39,539.011,0.0
53850.0,STARLINK-4767,PAYLOAD,2023-03-09 23:45:55,15.08840133,0.000161,53.2167,172.5233,93.3765,266.7411,0.00018096,2.593e-05,0.0,0 STARLINK-4767,1 53850U 22114AJ  23068.99022623  .00002593  00000-0  18096-3 0  9999,2 53850  53.2167 172.5233 0001610  93.3765 266.7411 15.08840133 27022,6917.88,95.438,540.859,538.631,0.0
53850.0,STARLINK-4767,PAYLOAD,2023-03-10 10:53:38,15.08835777,0.000229,53.2174,170.443,94.154,265.9714,7.514e-05,9.08e-06,0.0,0 STARLINK-4767,1 53850U 22114AJ  23069.45391589  .00000908  00000-0  75140-4 0  9993,2 53850  53.2174 170.4430 0002290  94.1540 265.9714 15.08835777 27093,6917.893,95.438,541.342,538.174,0.0
53850.0,STARLINK-4767,PAYLOAD,2023-03-10 17:15:09,15.08859284,0.00016,53.2175,169.2537,118.7045,241.4108,0.00015904,2.245e-05,0.0,0 STARLINK-4767,1 53850U 22114AJ  23069.71885420  .00002245  00000-0  15904-3 0  9991,2 53850  53.2175 169.2537 0001600 118.7045 241.4108 15.08859284 27135,6917.821,95.436,540.793,538.58,0.0
53850.0,STARLINK-4767,PAYLOAD,2023-03-10 23:36:43,15.08831431,0.0001391,53.2175,168.0649,88.8835,271.2316,-5.8975e-05,-1.226e-05,0.0,0 STARLINK-4767,1 53850U 22114AJ  23069.98383926 -.00001226  00000-0 -58975-4 0  9990,2 53850  53.2175 168.0649 0001391  88.8835 271.2316 15.08831431 27177,6917.907,95.438,540.734,538.809,0.0
53850.0,STARLINK-4767,PAYLOAD,2023-03-11 10:44:26,15.08822145,0.000234,53.2189,165.9848,88.305,271.821,-9.9889e-05,-1.877e-05,0.0,0 STARLINK-4767,1 53850U 22114AJ  23070.44753346 -.00001877  00000-0 -99889-4 0  9991,2 53850  53.2189 165.9848 0002340  88.3050 271.8210 15.08822145 27786,6917.935,95.439,541.419,538.181,0.0
53850.0,STARLINK-4767,PAYLOAD,2023-03-11 13:55:13,15.08826048,0.0001833,53.2166,165.3868,87.4594,272.6608,-0.00020147,-3.492e-05,0.0,0 STARLINK-4767,1 53850U 22114AJ  23070.58001442 -.00003492  00000-0 -20147-3 0  9994,2 53850  53.2166 165.3868 0001833  87.4594 272.6608 15.08826048 27265,6917.923,95.438,541.056,538.52,0.0
53850.0,STARLINK-4767,PAYLOAD,2023-03-12 13:45:59,15.08843541,0.0001382,53.219,160.928,92.7682,267.3468,-0.00012376,-2.257e-05,0.0,0 STARLINK-4767,1 53850U 22114AJ  23071.57360402 -.00002257  00000-0 -12376-3 0  9991,2 53850  53.2190 160.9280 0001382  92.7682 267.3468 15.08843541 27416,6917.87,95.437,540.691,538.779,0.0
53850.0,STARLINK-4767,PAYLOAD,2023-03-13 12:01:23,15.08841556,0.0001968,53.2195,156.7644,70.9782,289.1423,0.00011128,1.483e-05,0.0,0 STARLINK-4767,1 53850U 22114AJ  23072.50096140  .00001483  00000-0  11128-3 0  9992,2 53850  53.2195 156.7644 0001968  70.9782 289.1423 15.08841556 28099,6917.876,95.437,541.102,538.379,0.0
53850.0,STARLINK-4767,PAYLOAD,2023-03-14 11:52:09,15.08848839,0.0001197,53.2181,152.3014,99.4178,260.6949,-6.1083e-05,-1.26e-05,0.0,0 STARLINK-4767,1 53850U 22114AJ  23073.49455989 -.00001260  00000-0 -61083-4 0  9992,2 53850  53.2181 152.3014 0001197  99.4178 260.6949 15.08848839 27701,6917.853,95.437,540.546,538.89,0.0
53850.0,STARLINK-4767,PAYLOAD,2023-03-14 13:27:33,15.08850119,0.000126,53.2186,152.0035,94.6314,265.4822,-5.78e-05,-1.208e-05,0.0,0 STARLINK-4767,1 53850U 22114AJ  23073.56079884 -.00001208  00000-0 -57800-4 0  9990,2 53850  53.2186 152.0035 0001260  94.6314 265.4822 15.08850119 28254,6917.849,95.437,540.586,538.843,0.0
